#dP2023 10 17  0  0  0.00000000      96 __u+U ITR00 FIT  IAC
## 2284 172800.00000000   900.00000000 60234 0.0000000000000
+  119   C06C07C08C09C10C11C12C13C14C16C19C20C21C22C23C24C25
+        C26C27C28C29C30C32C33C34C35C36C37C38C39C40C41C42C43
+        C44C45C46E02E03E04E05E07E08E09E10E11E12E13E14E15E19
+        E21E24E25E26E27E30E31E33E34E36G01G02G03G04G05G06G07
+        G08G09G10G11G12G13G14G15G16G17G18G19G20G21G22G23G24
+        G25G26G27G28G29G30G31G32J02J03J04R01R02R03R04R05R07
+        R08R09R11R12R13R14R15R16R17R18R19R20R21R22R24R25R26
++         9  7 10  9  7  7  7  9  7  9  6  8  6  5  8  6  7
++         6  6  7  8  8  5  6  5  6  7  8 10  9  8  7  7  6
++         5  7  8  6  6  5  5  5  5  4  4  5  5  7  5  5  5
++         5  6  5  6  4  6  4  6  5  5  5  4  7  6  5  6  5
++         4  8  5  6  5  6  5  5  4  3  6  5  5  5  5  5  5
++         5  7  4  6  5  5  6  5  7  8  7  5  4  7  7  5  7
++         6  6  7  7  7  6  5  6  4  4  7  7  5  7  5  5  6
%c M  cc GPS ccc cccc cccc cccc cccc ccccc ccccc ccccc ccccc
%c cc cc ccc ccc cccc cccc cccc cccc ccccc ccccc ccccc ccccc
%f  0.0000000  0.000000000  0.00000000000  0.000000000000000
%f  0.0000000  0.000000000  0.00000000000  0.000000000000000
%i    0    0    0    0      0      0      0      0         0
%i    0    0    0    0      0      0      0      0         0
/* INFORMATION & ANALYSIS CENTER (IAC)      ULTRA-RAPID DATA
/* S/V CLOCKS ARE ALIGNED TO GNSS TIME                      
/* G:C1WC2W R:C1PC2P E:C1XC5X C:C2IC6I J:C1CC2S             
/* PCV:IGS20_2280 OL/AL:FES2004  NONE     YN ORB:CoN CLK:CoN
*  2023 10 17 23 45  0.00000000
PC06 -17388.055835  30230.408807 -23849.824710     59.352331
PC07  -6663.409953  38907.929021 -14454.126837   -174.662695
PC08  -3084.743746  21061.974668  36407.855572    291.060245
PC09 -11301.623269  28921.863204 -28365.062494     28.314330
PC10    106.087271  41162.539702  -7371.131480     15.325707
PC11 -22192.434851  15070.560365  -7566.873366    208.959411
PC12 -18143.270278  -1500.139688 -21100.526804    893.538580
PC13   3476.388498  24596.462474  34278.345084    369.132669
PC14 -13429.119171   9059.163945  22722.675217    607.136696
PC16 -22721.127731  29593.473290 -19700.512899   -130.859287
PC19   8046.135291 -18454.778454 -19316.429714   -972.309616
PC20  16089.271928   -261.028471 -22795.572174    194.744028
PC21 -15055.386398 -19769.770808  12720.038827   -969.343162
PC22  -5024.885576 -27083.395036  -4544.655760   -262.220113
PC23   2755.219384  16930.658239 -22008.190474   -842.174941
PC24 -27264.829557  -2282.065628  -5427.130549    504.613987
PC25 -16261.024095  11150.186792 -19749.374327    235.178405
PC26 -22243.098160 -12690.824058  11028.349910   -193.201031
PC27  12726.782874   9741.102906  22828.107471    214.948329
PC28  -2573.381759  21059.773592  18131.823524    161.779888
PC29  17839.884460 -21434.705308  -1090.626890    189.120405
PC30  21592.094335  -7613.046126  15940.557396     -6.689293
PC32  15170.567423  19734.458590 -12604.047415   -530.221736
PC33  -8041.370389  18391.304405  19376.828597   -953.317892
PC34 -21864.980484   8928.237395 -14884.783559    283.368445
PC35   1663.685514 -21144.868217 -18127.456320    523.010796
PC36  17315.881734 -10291.677836  19340.769371   -175.099361
PC37  21452.482977  13530.047049 -11661.151876   -856.667855
PC38 -12458.635707  19244.372693  35409.487505    111.809574
PC39 -25023.416873  30463.218024 -15262.405215     -5.283364
PC40 -11323.000342  36203.530546 -18107.216240    -40.518532
PC41   4581.951656  27016.318846   5313.839386   -872.723522
PC42 -16502.318907  -1456.839436  22493.864897   -519.503110
PC43 -18347.026866  21037.652345    213.825982     44.403987
PC44 -13080.901047  -9506.296474 -22754.034973    264.831856
PC45  -3358.968622 -16872.359694  21967.014193    -37.122365
PC46  27106.341846   1554.385526   6544.507827    -92.661875
PE02  12710.384442  24283.249201 -11201.322355     71.022669
PE03   2725.161846  26061.580896 -13769.974409    -65.859605
PE04 -14633.167353  -9710.606902  23825.748483   -236.659840
PE05 -10742.665559  27251.624944   4258.537857     28.443731
PE07  18046.380078 -12064.951362 -20128.540098    -82.676438
PE08  14290.209018  10210.432723 -23833.001412   -162.987474
PE09 -17926.758508  11954.491227  20284.443997   -195.108130
PE10 -28331.775301   1758.268483  -8366.890799   -571.942820
PE11 -28252.804538   8579.453990   2095.683277   3103.111493
PE12 -24162.956737  -4801.992921 -16414.659145   -740.681895
PE13  28415.696707  -8183.230087  -1376.647030    -19.664805
PE14 -14533.647836  18998.321632  -8732.878239    371.615003
PE15  23852.154334   5027.494178  16802.184724    -62.039257
PE19   -744.444087 -27150.029609  11761.356186  -1403.750424
PE21   4423.761768 -18139.548534  22971.689676   -559.032957
PE24 -20156.036329    660.138946 -21668.682745   -381.368485
PE25  -4753.191311  17905.446448 -23078.938973     -3.399909
PE26  15614.453745 -16647.285047 -18848.795809    254.285420
PE27  19859.168857  -1190.919003  21927.478845   -177.118934
PE30  23300.508905  16604.675329   7613.153450   -588.153374
PE31 -23406.207928 -16264.830135  -7964.394918     -7.889593
PE33  -4683.024707 -15297.177703 -24900.220616      0.531296
PE34   5445.058031  15088.423946  24874.465384    -72.952992
PE36 -16285.207282  16412.908182  18484.409118   -131.350800
PG01  -2048.919846 -14599.834056 -22423.971855    163.623441
PG02   5083.342441 -16147.938025 -19915.595885   -540.732607
PG03  -9863.810372 -21786.101500 -11814.487262    -72.554534
PG04   -946.369902 -23645.035286  11937.923696    187.375474
PG05  -2879.028746  16580.815860  20344.505395   -146.901600
PG06 -25968.874937   5805.308159   -342.896726    528.228581
PG07 -19298.729816  -7936.505972  17175.875266     37.637121
PG08   4913.657593 -25767.607433  -2447.179431   -147.655698
PG09  -8990.461747 -16752.419325  18437.286288    -29.474456
PG10  20748.145100   7077.213979 -15042.619184    -57.749586
PG11 -20556.836191  12130.594617  11610.266857   -419.798804
PG12   6098.281560  22148.964943 -13670.440792   -437.015237
PG13 -13447.925816  22270.433121   4547.004339    585.174328
PG14 -21236.709547 -10143.026376 -12452.985110    217.013468
PG15   -822.696911  26216.193844  -3782.476446     88.119365
PG16   9441.424444 -11970.669828  21395.423266   -437.439715
PG17 -15211.243400   -737.497153 -21336.789074    723.805547
PG18  20564.670764   6303.416084  15710.036677   -451.971686
PG19 -17108.788633   7727.539173 -18844.886705    386.378609
PG20 -13438.348530   8851.151641  21145.998515    406.291002
PG21   8171.161184 -16336.516676 -18420.251679    146.524470
PG22 -19025.309752  -4460.172933 -17400.251303    100.960473
PG23  20647.719553  16316.742366  -4248.712819     84.275900
PG24  -2204.370492  16909.526476 -20662.369601   -348.724371
PG25  17049.399038  20376.654101  -3037.366890    473.206302
PG26  17155.749241  -4274.440561  19790.478399    222.564499
PG27  12756.421636 -20951.568781   9381.852746    -56.681756
PG28  25881.826142  -5391.548643  -2591.188161    -27.484590
PG29   7117.403878  17288.899779  18779.778976   -610.101410
PG30 -25198.317540   -729.511700   8899.272741   -477.577948
PG31  23928.534969  -9993.790855   6487.992834   -224.770449
PG32  16059.018044  -3944.228674 -20557.391975   -574.059012
PJ02 -21180.162614  20735.978053 -25420.932626     -5.877925
PJ03 -30219.681503  28899.904161  10632.940521     -5.394816
PJ04 -26540.848358  27324.198236  23984.342218     71.295282
PR01  11432.531698   8085.416369 -21325.939734     67.889762
PR02   8758.432392 -11197.622437 -21123.325007    -22.387215
PR03   1298.191973 -23953.597637  -8537.745209     87.271124
PR04  -6411.323479 -23202.823600   8429.188018    207.277979
PR05 -10775.592911  -9957.875916  20861.412900    120.786232
PR07   -948.156829  24301.156096   7824.443666     67.074503
PR08   6639.819303  23129.371400  -8470.351484    -72.985589
PR09 -17997.323936   2385.971827 -17936.563391    148.206056
PR11  14373.593205  14049.451577 -15684.491908   -200.027502
PR12  23815.573138   8796.746789   2581.257690     32.454789
PR13  19324.441621   -662.182667  16626.653957    -40.308846
PR14   1771.692770 -11265.533693  22831.391692     25.421438
PR15 -15357.951888 -14202.352406  14622.192482     85.287010
PR16 -23843.420088  -8837.389208  -2220.055387     19.748308
PR17  12539.082370 -17154.915250 -14136.805484     26.700409
PR18  -2270.331075 -11033.940729 -22861.706881    107.364392
PR19 -14964.184107  -1002.860783 -20624.549360   -251.273151
PR20 -21859.002649  12646.483131  -3697.138654   -101.987947
PR21 -11984.324115  16897.918287  14862.455780    -46.356055
PR22   3082.536170  10919.954541  22874.976761     89.171811
PR24  21329.306535 -13667.741425   3119.700991    -28.615908
PR25 -13105.872425  16733.764845  14090.777657     -5.399645
PR26   6606.042627  23273.234787  -8044.794825    -20.279337
EOF
